#aV2010  5 23  0  0   .00000000      96 DD+AD WGS84 FIT  NGA
## 1585       .00000000   900.00000000 55339  .0000000000000
+   30     1  2  3  4  5  6  7  8  9 10 11 12 13 14 15 16 17
+         18 19 20 21 22 23 24 26 27 28 29 30 31  0  0  0  0
+          0  0  0  0  0  0  0  0  0  0  0  0  0  0  0  0  0
+          0  0  0  0  0  0  0  0  0  0  0  0  0  0  0  0  0
+          0  0  0  0  0  0  0  0  0  0  0  0  0  0  0  0  0
++         0  0  0  0  0  0  0  0  0  0  0  0  0  0  0  0  0
++         0  0  0  0  0  0  0  0  0  0  0  0  0  0  0  0  0
++         0  0  0  0  0  0  0  0  0  0  0  0  0  0  0  0  0
++         0  0  0  0  0  0  0  0  0  0  0  0  0  0  0  0  0
++         0  0  0  0  0  0  0  0  0  0  0  0  0  0  0  0  0
%c cc cc ccc ccc cccc cccc cccc cccc ccccc ccccc ccccc ccccc
%c cc cc ccc ccc cccc cccc cccc cccc ccccc ccccc ccccc ccccc
%f  0.0000000  0.000000000  0.00000000000  0.000000000000000
%f  0.0000000  0.000000000  0.00000000000  0.000000000000000
%i    0    0    0    0      0      0      0      0         0
%i    0    0    0    0      0      0      0      0         0
/*      NGA, ST. LOUIS,MO.                                  
/*   EPHEMERIS COMPUTED FROM  3 DAYS OF DATA                
/* CCCCCCCCCCCCCCCCCCCCCCCCCCCCCCCCCCCCCCCCCCCCCCCCCCCCCCCCC
/* CCCCCCCCCCCCCCCCCCCCCCCCCCCCCCCCCCCCCCCCCCCCCCCCCCCCCCCCC
*  2010  5 23 10 15   .00000000                                                 
P  1 -18800.312136  -2165.863812  18596.162735   -122.898516                    
V  1 -14415.727814 -18946.649732 -16532.603783      -.040448                    
P  2  17444.468882 -13889.594711  14050.743587    258.194424                    
V  2  18347.075157   -610.625445 -23799.943575       .034122                    
P  3  -9724.838932  23785.060762   5595.630179    558.739890                    
V  3  -2295.581364  -8389.400594  30088.970547       .050039                    
P  4  26092.283492  -5712.911379   1429.310490     88.060475                    
V  4   2532.056802   2788.968376 -30966.722261       .082806                    
P  5   5635.395039 -15711.510443  20624.043906     -3.955392                    
V  5  17751.644785  19367.450799   9977.450782      -.013141                    
P  6 -13628.887854  20707.841355   9509.793492    631.376569                    
V  6    248.563053 -12376.836558  27986.051968      -.115928                    
P  7  19911.111860   7548.031117  15970.058950      -.691552                    
V  7 -19620.141672   5093.174293  21873.966735      -.003328                    
P  8  26302.219523    652.839329   5321.823021      5.489068                    
V  8  -6479.250096   2006.503415  31176.384993       .002322                    
P  9     71.620641 -15257.056749 -22283.010918      8.207111                    
V  9  26410.886032  -5285.772438   3841.637386       .022814                    
P 10  13996.901285  -6801.772460  21366.318803    -43.137018                    
V 10  17131.276864  21593.352804  -3970.282380      -.008482                    
P 11   6382.142307  15626.569491 -20764.802534    -64.318169                    
V 11 -24043.593519  10243.123963    692.914285      -.024458                    
P 12 -10349.305221 -22620.268709  -9477.529238   -112.243647                    
V 12   9343.600333   7895.203178 -28746.395258       .042498                    
P 13   7943.513878  14917.081224  20340.834716    304.144560                    
V 13 -11180.529890  23565.328452 -12855.978460      -.004294                    
P 14 -16553.339716   5751.849166 -19782.208850     48.790482                    
V 14   8789.907794 -23841.705911 -14315.086853       .043555                    
P 15   5750.261888 -25562.508673  -3939.131543   -268.566967                    
V 15   4561.342648  -3770.369153  31139.799007       .060447                    
P 16 -10724.937191  10537.255154  21926.022152    -74.255488                    
V 16 -17534.989126 -21466.748395   2014.827732      -.037518                    
P 17  16692.872135  -4262.886024 -20050.946021    152.457899                    
V 17  -8134.037772  24469.549480 -12117.628376       .022866                    
P 18 -19689.287051 -16833.828573  -6439.145565     70.024867                    
V 18  -2898.043665  -8541.963414  29556.701415       .024241                    
P 19  -7045.893388  24858.517681  -5364.808657    -36.931374                    
V 19  -5668.494668   5035.263559  30888.912473      -.027003                    
P 20  12488.122870  22233.988071  -7653.282970     55.716769                    
V 20  -8817.772403  -4918.651168 -29144.681186      -.005554                    
P 21 -23002.703898  -5836.324162  12876.872929    -62.057776                    
V 21  15034.818234  -4969.899886  24636.708983      -.025902                    
P 22 -20152.560978  -6275.059958 -16015.135733    171.421173                    
V 22 -11061.594380 -17627.619812  20525.881860      -.011113                    
P 23   2965.855811  21611.773268  14898.784020    369.811612                    
V 23  -8587.244400  17170.139054 -23463.553778      -.013893                    
P 24 -26225.382234    970.337426   3302.237583    289.810757                    
V 24   3665.881845  -3831.254906  31278.354258       .034212                    
P 26   1076.041451 -23349.301436 -12705.875597    -55.688301                    
V 26   7708.760119 -13428.916305  26894.648484      -.052477                    
P 27   4143.563633 -15246.481382 -20641.138539    154.487676                    
V 27  27235.024095  -5549.621144   9416.876203       .034051                    
P 28  20010.727697   9393.730468 -14454.830818    -15.509224                    
V 28  10354.166804  16100.879174  23732.330295       .009592                    
P 29  -8776.037126 -15511.136769  19802.258458    121.919953                    
V 29  10226.142933 -22761.118358 -13320.183001       .029264                    
P 30 -17950.763266 -19614.704986   -192.518597    245.231117                    
V 30   1992.943770  -2151.646276 -31617.970504       .034773                    
P 31 -25258.394367   7452.538728   4331.629318    -35.036015                    
V 31  -5490.053741  -1148.739275 -31371.386912       .020665                    
EOF
